APSTAR-6C               
1 43450U 18041A   24108.20063424 -.00000326  00000+0  00000+0 0  9996
2 43450   0.0019 334.4405 0001591 342.3534  95.2621  1.00272721 21911
BANGABANDHUSAT-1        
1 43463U 18044A   24107.98294057 -.00000371  00000+0  00000+0 0  9995
2 43463   0.0150 241.2841 0002466 139.9244 297.3328  1.00270020 21795
SES-12                  
1 43488U 18049A   24108.06230115 -.00000278  00000+0  00000+0 0  9998
2 43488   0.0156  96.0445 0001590 219.1313   7.9359  1.00270833 21486
FENGYUN 2H              
1 43491U 18050A   24108.11821206 -.00000137  00000+0  00000+0 0  9991
2 43491   0.9855  87.6202 0000861   9.7002 230.1515  1.00275078 21570
BEIDOU-2 IGSO-7         
1 43539U 18057A   24107.62215751 -.00000132  00000+0  00000+0 0  9993
2 43539  55.1338 169.9057 0073777 232.7279 139.6963  1.00272028 21205
TELSTAR 19V             
1 43562U 18059A   24105.94223964 -.00000290  00000+0  00000+0 0  9994
2 43562   0.0215 170.8283 0001337 273.0073  35.9395  1.00270394 21198
TELKOM 4 (MERAH PUTIH)  
1 43587U 18064A   24107.90918079 -.00000354  00000+0  00000+0 0  9994
2 43587   0.0184 253.4804 0001280 147.9486 239.3968  1.00272569 20945
TELSTAR 18V             
1 43611U 18069A   24107.91509833 -.00000303  00000+0  00000+0 0  9996
2 43611   0.0140 199.4708 0001884 188.4634 285.0354  1.00269614 20676
AZERSPACE 2 (IS-38)     
1 43632U 18074A   24108.46940369  .00000128  00000+0  00000+0 0  9993
2 43632   0.0155 189.5773 0001347 195.3257  35.2701  1.00272594 20514
HORIZONS-3E             
1 43633U 18074B   24107.84974436 -.00000040  00000+0  00000+0 0  9991
2 43633   0.0145 207.3639 0001158 116.3731 356.6221  1.00270400 20380
AEHF-4 (USA 288)        
1 43651U 18079A   24107.87428473 -.00000285  00000+0  00000+0 0  9995
2 43651   1.7549 329.9359 0003506  36.5327  86.1923  1.00268693 20362
BEIDOU-3 G1             
1 43683U 18085A   24107.91553344 -.00000285  00000+0  00000+0 0  9998
2 43683   2.0422 112.0190 0003542 341.2205 221.9598  1.00273141 20121
GSAT-29                 
1 43698U 18089A   24106.53845354  .00000075  00000+0  00000+0 0  9996
2 43698   0.0190 247.6451 0000362  97.3465 108.0124  1.00271168 19839
ES'HAIL 2               
1 43700U 18090A   24107.82126789  .00000135  00000+0  00000+0 0  9996
2 43700   0.0132 255.0709 0001278 158.0270 113.8161  1.00274574 19743
GEO-KOMPSAT-2A          
1 43823U 18100A   24106.62025255 -.00000354  00000+0  00000+0 0  9991
2 43823   0.0533  54.4033 0001781   7.4466 133.9495  1.00271837 19717
GSAT-11                 
1 43824U 18100B   24107.71646549 -.00000087  00000+0  00000+0 0  9991
2 43824   0.0363  72.0398 0007042 348.4396 116.7713  1.00271961 19546
GSAT-7A                 
1 43864U 18105A   24108.47288459  .00000019  00000+0  00000+0 0  9990
2 43864   0.0568  91.6030 0002319 288.3706  59.1336  1.00270154 19528
COSMOS 2533             
1 43867U 18107A   24107.90160983 -.00000048  00000+0  00000+0 0  9996
2 43867   0.0395  69.9442 0000585 352.2027 177.9352  1.00272735 19494
TJS-3                   
1 43874U 18110A   24108.70955979 -.00000006  00000+0  00000+0 0  9998
2 43874   0.4981  88.8939 0000801 234.5609 311.2626  1.00269565 19558
CHINASAT 2D (ZX 2D)     
1 43920U 19001A   24108.19985104 -.00000345  00000+0  00000+0 0  9992
2 43920   0.0143 269.8770 0001559 344.7399 153.1542  1.00272594 19423
HELLAS-SAT 4 & SGS-1    
1 44034U 19007A   24108.09563350  .00000144  00000+0  00000+0 0  9995
2 44034   0.0707 122.5080 0003731  17.2741 139.3889  1.00272206 19411
GSAT-31                 
1 44035U 19007B   24107.10974286  .00000115  00000+0  00000+0 0  9999
2 44035   0.0503  75.3634 0003450 243.4359 333.3325  1.00272608 19026
NUSANTARA SATU          
1 44048U 19009A   24106.38174400 -.00000245  00000+0  00000+0 0  9999
2 44048   0.0339 131.2255 0002556 320.8296  35.3976  1.00271874 18826
CHINASAT 6C (ZX 6C)     
1 44067U 19012A   24108.55902735 -.00000343  00000+0  00000+0 0  9994
2 44067   0.1088  92.6356 0001011 278.3009 166.9204  1.00273884 18801
WGS 10 (USA 291)        
1 44071U 19014A   24107.89969532  .00000037  00000+0  00000+0 0  9994
2 44071   0.0135 202.0101 0000355 142.5585 245.1511  1.00271831 18692
TIANLIAN 2-01           
1 44076U 19017A   24108.11777696 -.00000115  00000+0  00000+0 0  9994
2 44076   0.0725 261.2075 0003947 110.3070 313.6473  1.00271209 18676
ARABSAT-6A              
1 44186U 19021A   24106.17557885  .00000143  00000+0  00000+0 0  9991
2 44186   0.0489   8.3314 0001847 353.1216 296.0025  1.00269252 18208
BEIDOU-3 IGSO-1         
1 44204U 19023A   24107.82000248 -.00000219  00000+0  00000+0 0  9998
2 44204  57.5574  45.8648 0019361 215.3909 358.5726  1.00267999 18405
BEIDOU-2 G8             
1 44231U 19027A   24107.91640367 -.00000255  00000+0  00000+0 0  9994
2 44231   1.7982  73.4706 0002915 180.1095  66.3690  1.00274636 18144
YAMAL 601               
1 44307U 19031A   24107.89743273  .00000111  00000+0  00000+0 0  9990
2 44307   0.0146 177.0857 0002289 202.4137 198.0801  1.00271970 17985
AT&T T-16               
1 44333U 19034A   24107.86749698 -.00000123  00000+0  00000+0 0  9990
2 44333   0.0169 217.1776 0001011  20.6067 179.1377  1.00266701 17691
EUTELSAT 7C             
1 44334U 19034B   24106.31411882  .00000038  00000+0  00000+0 0  9995
2 44334   0.0706 192.7059 0003130 173.0041 318.3166  1.00271521 18151
BEIDOU-3 IGSO-2         
1 44337U 19035A   24108.05459856 -.00000128  00000+0  00000+0 0  9996
2 44337  55.1679 165.8040 0032856 207.8223 330.4052  1.00260437 17769
COSMOS 2539             
1 44457U 19048A   24108.17644196  .00000073  00000+0  00000+0 0  9997
2 44457   0.0292 108.6442 0000260 150.6575  21.9976  1.00274896 17280
EDRS-C                  
1 44475U 19049A   24107.34396552  .00000144  00000+0  00000+0 0  9995
2 44475   0.0590 250.0250 0000858 152.9887 316.9819  1.00274325 17262
INTELSAT 39 (IS-39)     
1 44476U 19049B   24108.11481819  .00000024  00000+0  00000+0 0  9990
2 44476   0.0168 230.1080 0000678 283.3742 155.5284  1.00272489 17197
AMOS-17                 
1 44479U 19050A   24107.17509681  .00000099  00000+0  00000+0 0  9990
2 44479   0.0303  85.6849 0001476 311.4746 247.6632  1.00270936 17231
AEHF-5 (USA 292)        
1 44481U 19051A   24107.89838999  .00000071  00000+0  00000+0 0  9990
2 44481   2.8418 307.0556 0048271   3.9068 272.4560  1.00273220 17326
EUTELSAT 5 WEST B       
1 44624U 19067A   24107.86854969 -.00000051  00000+0  00000+0 0  9997
2 44624   0.0757  34.6780 0002858 350.6787 127.7995  1.00272398 16513
MEV-1                   
1 44625U 19067B   24107.38109069 -.00000212  00000+0  00000+0 0  9998
2 44625   0.0364  84.2590 0000834 309.8328 280.6093  1.00272201 83646
TJS-4                   
1 44637U 19070A   24108.11890824 -.00000179  00000+0  00000+0 0  9995
2 44637   0.0470  34.9363 0003750  20.8992 276.1915  1.00273838 16594
BEIDOU-3 IGSO-3         
1 44709U 19073A   24107.90091337 -.00000164  00000+0  00000+0 0  9990
2 44709  56.1548 289.3690 0036739 179.6309 180.3282  1.00268214 16505
TIBA-1                  
1 44800U 19080A   24107.73313437  .00000146  00000+0  00000+0 0  9998
2 44800   0.0596 355.2886 0001628  33.2169 116.2984  1.00275302 16127
INMARSAT GX5            
1 44801U 19080B   24108.17626792  .00000066  00000+0  00000+0 0  9990
2 44801   0.0481  40.6395 0001824 342.4130 257.1789  1.00272049 16158
JCSAT-18 (KACIFIC 1)    
1 44868U 19091A   24107.74407049 -.00000211  00000+0  00000+0 0  9992
2 44868   0.0328  10.5851 0000390 257.6871 354.9336  1.00271334 16071
ELEKTRO-L 3             
1 44903U 19095A   24108.11760291 -.00000105  00000+0  00000+0 0  9991
2 44903   0.0426 336.5594 0001026  47.3793 300.0943  1.00272979 15755
SHIJIAN-20 (SJ-20)      
1 44910U 19097A   24108.76612392 -.00000026  00000+0  00000+0 0  9992
2 44910   2.8860  84.5618 0003622 336.0628 129.5984  1.00273962 15764
TJS-5                   
1 44978U 20002A   24108.05221053 -.00000351  00000+0  00000+0 0  9997
2 44978   0.4318  84.4484 0003966 187.9841  59.5420  1.00269252 15765
GSAT-30                 
1 45026U 20005A   24107.61789832 -.00000175  00000+0  00000+0 0  9994
2 45026   0.0756  87.9690 0002356 351.2078  71.5122  1.00272595 15575
EUTELSAT KONNECT        
1 45027U 20005B   24107.88907856  .00000040  00000+0  00000+0 0  9992
2 45027   0.0648  85.8032 0000317 185.9608 261.0080  1.00271667 16398
JCSAT-17                
1 45245U 20013A   24107.70578758 -.00000329  00000+0  00000+0 0  9990
2 45245   5.6271 349.4501 0003305  17.8236 228.0931  1.00269919 15296
GEO-KOMPSAT-2B          
1 45246U 20013B   24107.69697885 -.00000353  00000+0  00000+0 0  9999
2 45246   0.0397  38.7452 0001202 293.6380 252.1437  1.00271501 15341
BEIDOU-3 G2             
1 45344U 20017A   24108.11838611 -.00000148  00000+0  00000+0 0  9996
2 45344   2.2458  27.1462 0001178 326.0364 335.2089  1.00271508 15332
AEHF-6 (USA 298)        
1 45465U 20022B   24107.98668253 -.00000313  00000+0  00000+0 0  9997
2 45465   4.3701 298.7621 0045357   8.3644  31.4026  1.00275467 15054
BEIDOU-3 G3             
1 45807U 20040A   24107.90970293 -.00000363  00000+0  00000+0 0  9994
2 45807   0.6847  33.3362 0005880 300.3147 309.8831  1.00276653 14131
APSTAR-6D               
1 45863U 20045A   24106.62579645 -.00000329  00000+0  00000+0 0  9997
2 45863   0.0518  77.6482 0002502 336.5490 149.3529  1.00270717 13917
KOREASAT 116            
1 45920U 20048A   24108.05398941 -.00000371  00000+0  00000+0 0  9998
2 45920   0.0243 275.1221 0000625 130.4844 295.6896  1.00269604 13690
EXPRESS 103             
1 45985U 20053A   24107.90691821 -.00000290  00000+0  00000+0 0  9991
2 45985   0.0144 256.5220 0000789  62.3051 309.6791  1.00273523 13715
EXPRESS 80              
1 45986U 20053B   24107.20882277 -.00000145  00000+0  00000+0 0  9991
2 45986   0.0330 248.0389 0001517 314.9547 156.9996  1.00269981 13703
